start=new Date('2021-10-07T00:00:00.000Z').valueOf();
sats=[{"CENTER_NAME":"EARTH","GP_ID":"186423545","APOAPSIS":"548.444","COUNTRY_CODE":"US","OBJECT_NAME":"STARLINK-1530","EPHEMERIS_TYPE":"0","MEAN_MOTION_DDOT":"0.0000000000000","CLASSIFICATION_TYPE":"U","BSTAR":"0.00012170000000","INCLINATION":"53.0544","SEMIMAJOR_AXIS":"6925.361","EPOCH":"2021-10-06T20:18:23.686272","RA_OF_ASC_NODE":"165.9409","ELEMENT_SET_NO":"999","MEAN_MOTION":"15.06396073","TLE_LINE2":"2 46049  53.0544 165.9409 0001760  72.3848 287.7333 15.06396073 65640","SITE":"AFETR","OBJECT_TYPE":"PAYLOAD","PERIOD":"95.592","PERIAPSIS":"546.007","DECAY_DATE":null,"TIME_SYSTEM":"UTC","ECCENTRICITY":"0.00017600","TLE_LINE1":"1 46049U 20055Y   21279.84610748  .00001531  00000-0  12170-3 0  9998","LAUNCH_DATE":"2020-08-07","RCS_SIZE":"LARGE","OBJECT_ID":"2020-055Y","NORAD_CAT_ID":"46049","REF_FRAME":"TEME","ARG_OF_PERICENTER":"72.3848","MEAN_MOTION_DOT":"0.00001531","FILE":"3148521","MEAN_ELEMENT_THEORY":"SGP4","MEAN_ANOMALY":"287.7333","REV_AT_EPOCH":"6564"},{"RA_OF_ASC_NODE":"160.7808","EPOCH":"2021-10-06T20:39:39.875616","INCLINATION":"53.0551","SEMIMAJOR_AXIS":"6817.835","ELEMENT_SET_NO":"999","BSTAR":"0.00006362700000","CLASSIFICATION_TYPE":"U","COUNTRY_CODE":"US","MEAN_MOTION_DDOT":"0.0000000000000","EPHEMERIS_TYPE":"0","OBJECT_NAME":"STARLINK-1535","APOAPSIS":"440.460","CENTER_NAME":"EARTH","GP_ID":"186422294","MEAN_MOTION_DOT":"0.00002359","ARG_OF_PERICENTER":"86.2414","REF_FRAME":"TEME","NORAD_CAT_ID":"46050","OBJECT_ID":"2020-055Z","REV_AT_EPOCH":"6571","MEAN_ANOMALY":"273.8718","MEAN_ELEMENT_THEORY":"SGP4","FILE":"3148521","RCS_SIZE":"LARGE","LAUNCH_DATE":"2020-08-07","TLE_LINE1":"1 46050U 20055Z   21279.86087819  .00002359  00000-0  63627-4 0  9992","DECAY_DATE":null,"ECCENTRICITY":"0.00011150","TIME_SYSTEM":"UTC","PERIOD":"93.375","SITE":"AFETR","OBJECT_TYPE":"PAYLOAD","TLE_LINE2":"2 46050  53.0551 160.7808 0001115  86.2414 273.8718 15.42172779 65719","MEAN_MOTION":"15.42172779","PERIAPSIS":"438.940"},{"COUNTRY_CODE":"US","OBJECT_NAME":"STARLINK-1540","EPHEMERIS_TYPE":"0","MEAN_MOTION_DDOT":"0.0000000000000","CENTER_NAME":"EARTH","GP_ID":"186422544","APOAPSIS":"548.414","EPOCH":"2021-10-06T21:11:27.562560","RA_OF_ASC_NODE":"165.7775","SEMIMAJOR_AXIS":"6925.340","INCLINATION":"53.0536","ELEMENT_SET_NO":"999","BSTAR":"0.00013245000000","CLASSIFICATION_TYPE":"U","DECAY_DATE":null,"ECCENTRICITY":"0.00017460","TIME_SYSTEM":"UTC","OBJECT_TYPE":"PAYLOAD","SITE":"AFETR","PERIOD":"95.592","MEAN_MOTION":"15.06402846","TLE_LINE2":"2 46051  53.0536 165.7775 0001746  64.4058 295.7112 15.06402846 65658","PERIAPSIS":"545.996","ARG_OF_PERICENTER":"64.4058","MEAN_MOTION_DOT":"0.00001692","OBJECT_ID":"2020-055AA","NORAD_CAT_ID":"46051","REF_FRAME":"TEME","MEAN_ANOMALY":"295.7112","MEAN_ELEMENT_THEORY":"SGP4","REV_AT_EPOCH":"6565","FILE":"3148521","RCS_SIZE":"LARGE","TLE_LINE1":"1 46051U 20055AA  21279.88295790  .00001692  00000-0  13245-3 0  9993","LAUNCH_DATE":"2020-08-07"},{"PERIOD":"95.591","OBJECT_TYPE":"PAYLOAD","SITE":"AFETR","MEAN_MOTION":"15.06412543","TLE_LINE2":"2 46052  53.0532 165.8424 0001460  78.2942 281.8211 15.06412543 65612","PERIAPSIS":"546.164","DECAY_DATE":null,"TIME_SYSTEM":"UTC","ECCENTRICITY":"0.00014600","RCS_SIZE":"LARGE","LAUNCH_DATE":"2020-08-07","TLE_LINE1":"1 46052U 20055AB  21279.86822757  .00001781  00000-0  13840-3 0  9991","MEAN_MOTION_DOT":"0.00001781","ARG_OF_PERICENTER":"78.2942","NORAD_CAT_ID":"46052","REF_FRAME":"TEME","OBJECT_ID":"2020-055AB","REV_AT_EPOCH":"6561","MEAN_ANOMALY":"281.8211","MEAN_ELEMENT_THEORY":"SGP4","FILE":"3148521","APOAPSIS":"548.186","GP_ID":"186423794","CENTER_NAME":"EARTH","COUNTRY_CODE":"US","MEAN_MOTION_DDOT":"0.0000000000000","EPHEMERIS_TYPE":"0","OBJECT_NAME":"STARLINK-1541","BSTAR":"0.00013840000000","CLASSIFICATION_TYPE":"U","RA_OF_ASC_NODE":"165.8424","EPOCH":"2021-10-06T20:50:14.862048","INCLINATION":"53.0532","SEMIMAJOR_AXIS":"6925.310","ELEMENT_SET_NO":"999"},{"SEMIMAJOR_AXIS":"6925.375","INCLINATION":"53.0528","RA_OF_ASC_NODE":"165.8239","EPOCH":"2021-10-06T20:55:32.901312","ELEMENT_SET_NO":"999","BSTAR":"0.00012088000000","CLASSIFICATION_TYPE":"U","COUNTRY_CODE":"US","OBJECT_NAME":"STARLINK-1543","EPHEMERIS_TYPE":"0","MEAN_MOTION_DDOT":"0.0000000000000","CENTER_NAME":"EARTH","GP_ID":"186424045","APOAPSIS":"548.170","OBJECT_ID":"2020-055AC","NORAD_CAT_ID":"46053","REF_FRAME":"TEME","ARG_OF_PERICENTER":"78.5173","MEAN_MOTION_DOT":"0.00001519","FILE":"3148521","MEAN_ELEMENT_THEORY":"SGP4","MEAN_ANOMALY":"281.5967","REV_AT_EPOCH":"6564","TLE_LINE1":"1 46053U 20055AC  21279.87190858  .00001519  00000-0  12088-3 0  9995","LAUNCH_DATE":"2020-08-07","RCS_SIZE":"LARGE","DECAY_DATE":null,"ECCENTRICITY":"0.00013440","TIME_SYSTEM":"UTC","TLE_LINE2":"2 46053  53.0528 165.8239 0001344  78.5173 281.5967 15.06391498 65645","MEAN_MOTION":"15.06391498","OBJECT_TYPE":"PAYLOAD","SITE":"AFETR","PERIOD":"95.593","PERIAPSIS":"546.309"},{"GP_ID":"186422794","CENTER_NAME":"EARTH","APOAPSIS":"548.342","COUNTRY_CODE":"US","EPHEMERIS_TYPE":"0","OBJECT_NAME":"STARLINK-1548","MEAN_MOTION_DDOT":"0.0000000000000","BSTAR":"0.00016355000000","CLASSIFICATION_TYPE":"U","SEMIMAJOR_AXIS":"6925.325","INCLINATION":"53.0545","EPOCH":"2021-10-06T21:06:08.573760","RA_OF_ASC_NODE":"165.7762","ELEMENT_SET_NO":"999","TLE_LINE2":"2 46054  53.0545 165.7762 0001664  76.1117 284.0057 15.06407671 65641","MEAN_MOTION":"15.06407671","OBJECT_TYPE":"PAYLOAD","SITE":"AFETR","PERIOD":"95.592","PERIAPSIS":"546.038","DECAY_DATE":null,"TIME_SYSTEM":"UTC","ECCENTRICITY":"0.00016640","TLE_LINE1":"1 46054U 20055AD  21279.87926590  .00002156  00000-0  16355-3 0  9995","LAUNCH_DATE":"2020-08-07","RCS_SIZE":"LARGE","OBJECT_ID":"2020-055AD","REF_FRAME":"TEME","NORAD_CAT_ID":"46054","ARG_OF_PERICENTER":"76.1117","MEAN_MOTION_DOT":"0.00002156","FILE":"3148521","MEAN_ANOMALY":"284.0057","MEAN_ELEMENT_THEORY":"SGP4","REV_AT_EPOCH":"6564"},{"PERIAPSIS":"545.981","PERIOD":"95.592","OBJECT_TYPE":"PAYLOAD","SITE":"AFETR","TLE_LINE2":"2 46055  53.0545 165.8580 0001797  72.1599 287.9586 15.06396214 65647","MEAN_MOTION":"15.06396214","TIME_SYSTEM":"UTC","ECCENTRICITY":"0.00017970","DECAY_DATE":null,"RCS_SIZE":"LARGE","LAUNCH_DATE":"2020-08-07","TLE_LINE1":"1 46055U 20055AE  21279.86454162  .00001504  00000-0  11989-3 0  9990","REV_AT_EPOCH":"6564","MEAN_ELEMENT_THEORY":"SGP4","MEAN_ANOMALY":"287.9586","FILE":"3148521","MEAN_MOTION_DOT":"0.00001504","ARG_OF_PERICENTER":"72.1599","NORAD_CAT_ID":"46055","REF_FRAME":"TEME","OBJECT_ID":"2020-055AE","APOAPSIS":"548.470","GP_ID":"186423043","CENTER_NAME":"EARTH","MEAN_MOTION_DDOT":"0.0000000000000","OBJECT_NAME":"STARLINK-1554","EPHEMERIS_TYPE":"0","COUNTRY_CODE":"US","CLASSIFICATION_TYPE":"U","BSTAR":"0.00011989000000","ELEMENT_SET_NO":"999","EPOCH":"2021-10-06T20:44:56.395968","RA_OF_ASC_NODE":"165.8580","SEMIMAJOR_AXIS":"6925.360","INCLINATION":"53.0545"},{"CENTER_NAME":"EARTH","GP_ID":"186423295","APOAPSIS":"548.394","COUNTRY_CODE":"US","OBJECT_NAME":"STARLINK-1561","EPHEMERIS_TYPE":"0","MEAN_MOTION_DDOT":"0.0000000000000","BSTAR":"0.00016071000000","CLASSIFICATION_TYPE":"U","EPOCH":"2021-10-06T21:16:47.148384","RA_OF_ASC_NODE":"165.7510","INCLINATION":"53.0540","SEMIMAJOR_AXIS":"6925.365","ELEMENT_SET_NO":"999","OBJECT_TYPE":"PAYLOAD","SITE":"AFETR","PERIOD":"95.592","TLE_LINE2":"2 46056  53.0540 165.7510 0001682  73.2029 286.9144 15.06394750 65651","MEAN_MOTION":"15.06394750","PERIAPSIS":"546.065","DECAY_DATE":null,"ECCENTRICITY":"0.00016820","TIME_SYSTEM":"UTC","RCS_SIZE":"LARGE","TLE_LINE1":"1 46056U 20055AF  21279.88665681  .00002113  00000-0  16071-3 0  9997","LAUNCH_DATE":"2020-08-07","ARG_OF_PERICENTER":"73.2029","MEAN_MOTION_DOT":"0.00002113","OBJECT_ID":"2020-055AF","NORAD_CAT_ID":"46056","REF_FRAME":"TEME","MEAN_ELEMENT_THEORY":"SGP4","MEAN_ANOMALY":"286.9144","REV_AT_EPOCH":"6565","FILE":"3148521"},{"PERIAPSIS":"546.130","TLE_LINE2":"2 46058  53.0542 165.6948 0001604  68.6353 291.4807 15.06391044 65640","MEAN_MOTION":"15.06391044","SITE":"AFETR","OBJECT_TYPE":"PAYLOAD","PERIOD":"95.593","TIME_SYSTEM":"UTC","ECCENTRICITY":"0.00016040","DECAY_DATE":null,"TLE_LINE1":"1 46058U 20055AH  21279.89770320 -.00000259  00000-0  15031-5 0  9994","LAUNCH_DATE":"2020-08-07","RCS_SIZE":"LARGE","FILE":"3148521","MEAN_ANOMALY":"291.4807","MEAN_ELEMENT_THEORY":"SGP4","REV_AT_EPOCH":"6564","OBJECT_ID":"2020-055AH","NORAD_CAT_ID":"46058","REF_FRAME":"TEME","ARG_OF_PERICENTER":"68.6353","MEAN_MOTION_DOT":"-0.00000259","GP_ID":"186423546","CENTER_NAME":"EARTH","APOAPSIS":"548.352","OBJECT_NAME":"STARLINK-1564","EPHEMERIS_TYPE":"0","MEAN_MOTION_DDOT":"0.0000000000000","COUNTRY_CODE":"US","BSTAR":"0.00000150310000","CLASSIFICATION_TYPE":"U","ELEMENT_SET_NO":"999","INCLINATION":"53.0542","SEMIMAJOR_AXIS":"6925.376","RA_OF_ASC_NODE":"165.6948","EPOCH":"2021-10-06T21:32:41.556480"},{"OBJECT_ID":"2020-055AJ","REF_FRAME":"TEME","NORAD_CAT_ID":"46059","ARG_OF_PERICENTER":"68.8904","MEAN_MOTION_DOT":"0.00000065","FILE":"3148521","MEAN_ELEMENT_THEORY":"SGP4","MEAN_ANOMALY":"291.2272","REV_AT_EPOCH":"6560","TLE_LINE1":"1 46059U 20055AJ  21279.90508023  .00000065  00000-0  23291-4 0  9996","LAUNCH_DATE":"2020-08-07","RCS_SIZE":"LARGE","DECAY_DATE":null,"TIME_SYSTEM":"UTC","ECCENTRICITY":"0.00017500","MEAN_MOTION":"15.06391018","TLE_LINE2":"2 46059  53.0533 165.6767 0001750  68.8904 291.2272 15.06391018 65607","OBJECT_TYPE":"PAYLOAD","SITE":"AFETR","PERIOD":"95.593","PERIAPSIS":"546.029","SEMIMAJOR_AXIS":"6925.376","INCLINATION":"53.0533","EPOCH":"2021-10-06T21:43:18.931872","RA_OF_ASC_NODE":"165.6767","ELEMENT_SET_NO":"999","CLASSIFICATION_TYPE":"U","BSTAR":"0.00002329100000","COUNTRY_CODE":"US","EPHEMERIS_TYPE":"0","OBJECT_NAME":"STARLINK-1570","MEAN_MOTION_DDOT":"0.0000000000000","CENTER_NAME":"EARTH","GP_ID":"186422295","APOAPSIS":"548.453"}];
